[{"OBJECT_NAME":"OBJECT F","OBJECT_ID":"2023-072F","EPOCH":"2026-03-09T23:31:37.259904","MEAN_MOTION":15.29470958,"ECCENTRICITY":0.00062878,"INCLINATION":97.5173,"RA_OF_ASC_NODE":265.798,"ARG_OF_PERICENTER":19.0017,"MEAN_ANOMALY":341.1456,"EPHEMERIS_TYPE":0,"CLASSIFICATION_TYPE":"U","NORAD_CAT_ID":56748,"ELEMENT_SET_NO":999,"REV_AT_EPOCH":15460,"BSTAR":0.00043416252,"MEAN_MOTION_DOT":0.00012341,"MEAN_MOTION_DDOT":0},{"OBJECT_NAME":"STARLINK-35308","OBJECT_ID":"2025-221AB","EPOCH":"2026-03-09T10:07:02.317440","MEAN_MOTION":15.30208972,"ECCENTRICITY":0.00010463,"INCLINATION":53.1576,"RA_OF_ASC_NODE":89.4942,"ARG_OF_PERICENTER":85.5307,"MEAN_ANOMALY":274.5814,"EPHEMERIS_TYPE":0,"CLASSIFICATION_TYPE":"U","NORAD_CAT_ID":65848,"ELEMENT_SET_NO":999,"REV_AT_EPOCH":2604,"BSTAR":0.00059571989,"MEAN_MOTION_DOT":0.0001733,"MEAN_MOTION_DDOT":0}]
